[{"OBJECT_NAME":"OBJECT AL","OBJECT_ID":"2023-085AL","EPOCH":"2026-03-09T22:26:04.970400","MEAN_MOTION":15.31857284,"ECCENTRICITY":0.000802,"INCLINATION":97.4839,"RA_OF_ASC_NODE":180.0127,"ARG_OF_PERICENTER":78.7242,"MEAN_ANOMALY":281.49,"EPHEMERIS_TYPE":0,"CLASSIFICATION_TYPE":"U","NORAD_CAT_ID":57038,"ELEMENT_SET_NO":999,"REV_AT_EPOCH":15154,"BSTAR":0.0006591637,"MEAN_MOTION_DOT":0.00020246,"MEAN_MOTION_DDOT":0},{"OBJECT_NAME":"STARLINK-31016","OBJECT_ID":"2023-192T","EPOCH":"2026-03-09T06:23:55.413312","MEAN_MOTION":15.30182859,"ECCENTRICITY":0.00010047,"INCLINATION":53.1604,"RA_OF_ASC_NODE":64.4415,"ARG_OF_PERICENTER":73.1301,"MEAN_ANOMALY":286.981,"EPHEMERIS_TYPE":0,"CLASSIFICATION_TYPE":"U","NORAD_CAT_ID":58548,"ELEMENT_SET_NO":999,"REV_AT_EPOCH":12592,"BSTAR":0.00010662298,"MEAN_MOTION_DOT":2.798e-5,"MEAN_MOTION_DDOT":0}]
